{
    "links": {
        "self": "http://www.neowsapp.com/rest/v1/neo/3568308?api_key=iIulBulltgU6a56xZRHN4H3l9WmuAYTsLGpBGhQ2"
    },
    "id": "3568308",
    "neo_reference_id": "3568308",
    "name": "(2011 ML)",
    "designation": "2011 ML",
    "nasa_jpl_url": "http://ssd.jpl.nasa.gov/sbdb.cgi?sstr=3568308",
    "absolute_magnitude_h": 22.5,
    "estimated_diameter": {
        "kilometers": {
            "estimated_diameter_min": 0.0840533402,
            "estimated_diameter_max": 0.1879489824
        },
        "meters": {
            "estimated_diameter_min": 84.0533402073,
            "estimated_diameter_max": 187.9489824394
        },
        "miles": {
            "estimated_diameter_min": 0.0522283081,
            "estimated_diameter_max": 0.1167860472
        },
        "feet": {
            "estimated_diameter_min": 275.7655606856,
            "estimated_diameter_max": 616.6305395464
        }
    },
    "is_potentially_hazardous_asteroid": false,
    "close_approach_data": [
        {
            "close_approach_date": "2011-07-13",
            "close_approach_date_full": "2011-Jul-13 21:52",
            "epoch_date_close_approach": 1310593920000,
            "relative_velocity": {
                "kilometers_per_second": "3.4620538307",
                "kilometers_per_hour": "12463.3937906169",
                "miles_per_hour": "7744.268213953"
            },
            "miss_distance": {
                "astronomical": "0.2143385051",
                "lunar": "83.3776784839",
                "kilometers": "32064583.821944137",
                "miles": "19924008.4984056106"
            },
            "orbiting_body": "Earth"
        }
    ],
    "orbital_data": {
        "orbit_id": "13",
        "orbit_determination_date": "2017-04-06 08:53:15",
        "first_observation_date": "2011-06-22",
        "last_observation_date": "2011-08-20",
        "data_arc_in_days": 59,
        "observations_used": 32,
        "orbit_uncertainty": "7",
        "minimum_orbit_intersection": ".192842",
        "jupiter_tisserand_invariant": "3.571",
        "epoch_osculation": "2459000.5",
        "eccentricity": ".4389247929860742",
        "semi_major_axis": "2.154958718776736",
        "inclination": "1.698818391587789",
        "ascending_node_longitude": "296.4926607331153",
        "orbital_period": "1155.46517185343",
        "perihelion_distance": "1.209093909244121",
        "perihelion_argument": "353.3817760144698",
        "aphelion_distance": "3.10082352830935",
        "perihelion_time": "2459218.123840206429",
        "mean_anomaly": "292.1965002643522",
        "mean_motion": ".3115628309441297",
        "equinox": "J2000",
        "orbit_class": {
            "orbit_class_type": "AMO",
            "orbit_class_description": "Near-Earth asteroid orbits similar to that of 1221 Amor",
            "orbit_class_range": "1.017 AU < q (perihelion) < 1.3 AU"
        }
    },
    "is_sentry_object": false
}